NORAD_CAT_ID,OBJECT_NAME,OBJECT_TYPE,EPOCH,MEAN_MOTION,ECCENTRICITY,INCLINATION,RA_OF_ASC_NODE,ARG_OF_PERICENTER,MEAN_ANOMALY,BSTAR,MEAN_MOTION_DOT,MEAN_MOTION_DDOT,TLE_LINE0,TLE_LINE1,TLE_LINE2,SEMIMAJOR_AXIS,PERIOD,APOGEE,PERIGEE,DECAYED
52599.0,STARLINK-4024,PAYLOAD,2022-06-11 22:00:00,15.604712,0.000101,53.2172,301.0288,86.2761,246.4591,-0.0093121,-0.0071517,0.0,0 STARLINK-4024,1 52599U 22052B   22162.91667824 -.00715170  00000-0 -93121-2 0  9998,2 52599  53.2172 301.0288 0001010  86.2761 246.4591 15.60471200  1307,6764.432,92.28,386.98,385.614,0.0
52599.0,STARLINK-4024,PAYLOAD,2022-06-12 06:00:02,15.59959071,0.000108,53.2174,299.4079,64.6023,341.5221,-0.0094761,-0.00713682,0.0,0 STARLINK-4024,1 52599U 22052B   22163.25002315 -.00713682  00000-0 -94761-2 0  9991,2 52599  53.2174 299.4079 0001080  64.6023 341.5221 15.59959071  4850,6765.9119999999975,92.31,388.508,387.047,0.0
52599.0,STARLINK-4024,PAYLOAD,2022-06-12 14:00:01,15.59449339,0.0001406,53.2174,297.7918,50.9185,67.8483,-0.0096575,-0.00713341,0.0,0 STARLINK-4024,1 52599U 22052B   22163.58334491 -.00713341  00000-0 -96575-2 0  9997,2 52599  53.2174 297.7918 0001406  50.9185  67.8483 15.59449339  1308,6767.387,92.34,390.203,388.3,0.0
52599.0,STARLINK-4024,PAYLOAD,2022-06-12 22:00:00,15.58941584,0.0001250999999999,53.2171,296.1755,75.9734,114.8884,-0.0098978,-0.00716696,0.0,0 STARLINK-4024,1 52599U 22052B   22163.91667824 -.00716696  00000-0 -98978-2 0  9998,2 52599  53.2171 296.1755 0001251  75.9734 114.8884 15.58941584  1308,6768.856,92.37,391.568,389.874,0.0
52599.0,STARLINK-4024,PAYLOAD,2022-06-13 06:00:02,15.5842891,0.0001258,53.2173,294.5584,66.2958,196.1162,-0.010028,-0.00712463,0.0,0 STARLINK-4024,1 52599U 22052B   22164.25002315 -.00712463  00000-0 -10028-1 0  9991,2 52599  53.2173 294.5584 0001258  66.2958 196.1162 15.58428910  5006,6770.34,92.401,393.057,391.354,0.0
52599.0,STARLINK-4024,PAYLOAD,2022-06-13 14:00:01,15.57920225,0.0001351999999999,53.2173,292.9462,50.0032,283.2124,-0.010248,-0.00714054,0.0,0 STARLINK-4024,1 52599U 22052B   22164.58334491 -.00714054  00000-0 -10248-1 0  9992,2 52599  53.2173 292.9462 0001352  50.0032 283.2124 15.57920225  1302,6771.814,92.431,394.595,392.764,0.0
52599.0,STARLINK-4024,PAYLOAD,2022-06-13 22:00:00,15.5741107,0.0001068,53.2171,291.3337,68.2881,335.1845,-0.010455,-0.00714501,0.0,0 STARLINK-4024,1 52599U 22052B   22164.91667824 -.00714501  00000-0 -10455-1 0  9995,2 52599  53.2171 291.3337 0001068  68.2881 335.1845 15.57411070  1301,6773.29,92.461,395.878,394.432,0.0
52599.0,STARLINK-4024,PAYLOAD,2022-06-14 06:00:00,15.56900548,0.0001295,53.2171,289.7203,54.0948,59.0244,-0.010673,-0.00715476,0.0,0 STARLINK-4024,1 52599U 22052B   22165.25001157 -.00715476  00000-0 -10673-1 0  9998,2 52599  53.2171 289.7203 0001295  54.0948  59.0244 15.56900548  5168,6774.771,92.491,397.513,395.758,0.0
52599.0,STARLINK-4024,PAYLOAD,2022-06-14 14:00:01,15.56388455,0.0001559,53.2172,288.1117,48.6933,133.4573,-0.010808,-0.00711191,0.0,0 STARLINK-4024,1 52599U 22052B   22165.58334491 -.00711191  00000-0 -10808-1 0  9994,2 52599  53.2172 288.1117 0001559  48.6933 133.4573 15.56388455  1303,6776.257,92.522,399.17800000000005,397.065,0.0
52599.0,STARLINK-4024,PAYLOAD,2022-06-14 22:00:00,15.55882377,0.0001457,53.2172,286.5026,50.3618,200.2067,-0.011118,-0.00717318,0.0,0 STARLINK-4024,1 52599U 22052B   22165.91667824 -.00717318  00000-0 -11118-1 0  9992,2 52599  53.2172 286.5026 0001457  50.3618 200.2067 15.55882377  1303,6777.726,92.552,400.578,398.603,0.0
52599.0,STARLINK-4024,PAYLOAD,2022-06-15 14:00:01,15.54861351,0.0001415,53.2176,283.2884,43.9569,341.6115,-0.011507,-0.00715011,0.0,0 STARLINK-4024,1 52599U 22052B   22166.58334491 -.00715011  00000-0 -11507-1 0  9997,2 52599  53.2176 283.2884 0001415  43.9569 341.6115 15.54861351  5373,6780.693,92.613,403.517,401.598,0.0
52599.0,STARLINK-4024,PAYLOAD,2022-06-15 22:00:00,15.54350705,0.0001247,53.2172,281.6827,56.4087,35.741,-0.011699,-0.0071348,0.0,0 STARLINK-4024,1 52599U 22052B   22166.91667824 -.00713480  00000-0 -11699-1 0  9993,2 52599  53.2172 281.6827 0001247  56.4087  35.7410 15.54350705  1309,6782.178000000001,92.643,404.888,403.197,0.0
52599.0,STARLINK-4024,PAYLOAD,2022-06-16 02:00:01,15.54086958,0.0001284999999999,53.2172,280.8805,48.2758,256.9382,-0.011592,-0.00701233,0.0,0 STARLINK-4024,1 52599U 22052B   22167.08334491 -.00701233  00000-0 -11592-1 0  9998,2 52599  53.2172 280.8805 0001285  48.2758 256.9382 15.54086958  1303,6782.945,92.659,405.682,403.93800000000016,0.0
52599.0,STARLINK-4024,PAYLOAD,2022-06-19 14:00:01,15.48742282,0.0001724,53.2176,264.1054,35.4497,28.6435,-0.014354,-0.00724309,0.0,0 STARLINK-4024,1 52599U 22052B   22170.58334491 -.00724309  00000-0 -14354-1 0  9995,2 52599  53.2176 264.1054 0001724  35.4497  28.6435 15.48742282  1309,6798.541,92.979,421.578,419.234,0.0
52599.0,STARLINK-4024,PAYLOAD,2022-06-19 20:00:01,15.48359117,0.0001467,53.2172,262.9118,40.8723,337.6993,-0.014509,-0.00722419,0.0,0 STARLINK-4024,1 52599U 22052B   22170.83334491 -.00722419  00000-0 -14509-1 0  9995,2 52599  53.2172 262.9118 0001467  40.8723 337.6993 15.48359117  6036,6799.663000000001,93.002,422.525,420.53,0.0
52599.0,STARLINK-4024,PAYLOAD,2022-06-19 22:00:00,15.48230773,0.000158,53.2172,262.5137,41.8957,81.4263,-0.014558,-0.00721672,0.0,0 STARLINK-4024,1 52599U 22052B   22170.91667824 -.00721672  00000-0 -14558-1 0  9997,2 52599  53.2172 262.5137 0001580  41.8957  81.4263 15.48230773  1304,6800.0390000000025,93.009,422.978,420.829,0.0
52599.0,STARLINK-4024,PAYLOAD,2022-06-20 14:00:01,15.47210188,0.0001769,53.2174,259.3371,42.6045,197.3331,-0.015053,-0.00720164,0.0,0 STARLINK-4024,1 52599U 22052B   22171.58334491 -.00720164  00000-0 -15053-1 0  9998,2 52599  53.2174 259.3371 0001769  42.6045 197.3331 15.47210188  1306,6803.029,93.071,426.097,423.69,0.0
52599.0,STARLINK-4024,PAYLOAD,2022-06-20 22:00:00,15.46702442,0.0001406,53.2173,257.7489,51.5636,245.7631,-0.015424,-0.00724567,0.0,0 STARLINK-4024,1 52599U 22052B   22171.91667824 -.00724567  00000-0 -15424-1 0  9997,2 52599  53.2173 257.7489 0001406  51.5636 245.7631 15.46702442  6203,6804.517,93.101,427.339,425.426,0.0
52599.0,STARLINK-4024,PAYLOAD,2022-06-21 14:00:01,15.45681961,0.0001602,53.2174,254.5799,39.0804,11.185,-0.015944,-0.00723129,0.0,0 STARLINK-4024,1 52599U 22052B   22172.58334491 -.00723129  00000-0 -15944-1 0  9992,2 52599  53.2174 254.5799 0001602  39.0804  11.1850 15.45681961  1304,6807.512,93.163,430.468,428.286,0.0
52599.0,STARLINK-4024,PAYLOAD,2022-06-21 22:00:00,15.45170888,0.0001558,53.2173,252.9953,42.4035,63.4138,-0.016179,-0.00721132,0.0,0 STARLINK-4024,1 52599U 22052B   22172.91667824 -.00721132  00000-0 -16179-1 0  9991,2 52599  53.2173 252.9953 0001558  42.4035  63.4138 15.45170888  1301,6809.013000000001,93.194,431.939,429.817,0.0
52599.0,STARLINK-4024,PAYLOAD,2022-06-22 00:00:02,15.45041856,0.0001563,53.2174,252.5989,48.9446,160.7299,-0.0161849999999999,-0.00718423,0.0,0 STARLINK-4024,1 52599U 22052B   22173.00002315 -.00718423  00000-0 -16185-1 0  9996,2 52599  53.2174 252.5989 0001563  48.9446 160.7299 15.45041856  6362,6809.392,93.201,432.321,430.193,0.0
52599.0,STARLINK-4024,PAYLOAD,2022-06-22 14:00:01,15.44149498,0.0001881,53.2175,249.8334,38.8288,176.2508,-0.016677,-0.00718062,0.0,0 STARLINK-4024,1 52599U 22052B   22173.58334491 -.00718062  00000-0 -16677-1 0  9997,2 52599  53.2175 249.8334 0001881  38.8288 176.2508 15.44149498  1305,6812.015,93.255,435.162,432.599,0.0
52599.0,STARLINK-4024,PAYLOAD,2022-06-22 22:00:00,15.4364272,0.0001579,53.2175,248.2523,45.7724,223.0195,-0.017125,-0.00724183,0.0,0 STARLINK-4024,1 52599U 22052B   22173.91667824 -.00724183  00000-0 -17125-1 0  9993,2 52599  53.2175 248.2523 0001579  45.7724 223.0195 15.43642720  1302,6813.505999999999,93.286,436.447,434.295,0.0
52599.0,STARLINK-4024,PAYLOAD,2022-06-23 06:00:00,15.43130789,0.0001641999999999,53.2177,246.6735,39.3492,282.5426,-0.017313,-0.00719868,0.0,0 STARLINK-4024,1 52599U 22052B   22174.25001157 -.00719868  00000-0 -17313-1 0  9995,2 52599  53.2177 246.6735 0001642  39.3492 282.5426 15.43130789  6560,6815.013000000001,93.317,437.997,435.759,0.0
52599.0,STARLINK-4024,PAYLOAD,2022-06-23 14:00:01,15.42621026,0.0001784,53.2177,245.0981,32.1268,342.2508,-0.017644,-0.00721015,0.0,0 STARLINK-4024,1 52599U 22052B   22174.58334491 -.00721015  00000-0 -17644-1 0  9995,2 52599  53.2177 245.0981 0001784  32.1268 342.2508 15.42621026  1305,6816.514,93.348,439.595,437.163,0.0
52599.0,STARLINK-4024,PAYLOAD,2022-06-23 22:00:00,15.42110319,0.0001564,53.2176,243.5205,38.6958,27.557,-0.01792,-0.00719847,0.0,0 STARLINK-4024,1 52599U 22052B   22174.91667824 -.00719847  00000-0 -17920-1 0  9998,2 52599  53.2176 243.5205 0001564  38.6958  27.5570 15.42110319  1309,6818.019,93.379,440.95,438.818,0.0
52599.0,STARLINK-4024,PAYLOAD,2022-06-24 06:00:02,15.415993099999998,0.0001929,53.2177,241.9455,32.2791,85.2993,-0.018172,-0.00717768,0.0,0 STARLINK-4024,1 52599U 22052B   22175.25002315 -.00717768  00000-0 -18172-1 0  9994,2 52599  53.2177 241.9455 0001929  32.2791  85.2993 15.41599310  6710,6819.526,93.409,442.706,440.075,0.0
52599.0,STARLINK-4024,PAYLOAD,2022-06-24 14:00:01,15.41087928,0.0002163,53.2175,240.3736,30.2705,137.8914,-0.018412,-0.00715148,0.0,0 STARLINK-4024,1 52599U 22052B   22175.58334491 -.00715148  00000-0 -18412-1 0  9990,2 52599  53.2175 240.3736 0002163  30.2705 137.8914 15.41087928  1301,6821.034000000002,93.44,444.375,441.424,0.0
52599.0,STARLINK-4024,PAYLOAD,2022-06-24 22:00:01,15.40581338,0.0001723,53.2175,238.7994,42.5586,175.7029,-0.018888,-0.00720808,0.0,0 STARLINK-4024,1 52599U 22052B   22175.91668981 -.00720808  00000-0 -18888-1 0  9997,2 52599  53.2175 238.7994 0001723  42.5586 175.7029 15.40581338  1303,6822.529,93.471,445.57,443.219,0.0
